{
  "links" : {
    "next" : "https://api.nasa.gov/neo/rest/v1/feed?start_date=2005-08-16&end_date=2005-08-16&detailed=true&api_key=t0TVs3DtDT2H8Oy2Zy8m2eVrNsAVKAexjcZXUckd",
    "prev" : "https://api.nasa.gov/neo/rest/v1/feed?start_date=2005-08-14&end_date=2005-08-14&detailed=true&api_key=t0TVs3DtDT2H8Oy2Zy8m2eVrNsAVKAexjcZXUckd",
    "self" : "https://api.nasa.gov/neo/rest/v1/feed?start_date=2005-08-15&end_date=2005-08-15&detailed=true&api_key=t0TVs3DtDT2H8Oy2Zy8m2eVrNsAVKAexjcZXUckd"
  },
  "element_count" : 5,
  "near_earth_objects" : {
    "2005-08-15" : [ {
      "links" : {
        "self" : "https://api.nasa.gov/neo/rest/v1/neo/3290340?api_key=t0TVs3DtDT2H8Oy2Zy8m2eVrNsAVKAexjcZXUckd"
      },
      "neo_reference_id" : "3290340",
      "name" : "(2005 QR173)",
      "nasa_jpl_url" : "http://ssd.jpl.nasa.gov/sbdb.cgi?sstr=3290340",
      "absolute_magnitude_h" : 20.4,
      "estimated_diameter" : {
        "kilometers" : {
          "estimated_diameter_min" : 0.2210828104,
          "estimated_diameter_max" : 0.4943561926
        },
        "meters" : {
          "estimated_diameter_min" : 221.0828103591,
          "estimated_diameter_max" : 494.3561926196
        },
        "miles" : {
          "estimated_diameter_min" : 0.137374447,
          "estimated_diameter_max" : 0.3071786018
        },
        "feet" : {
          "estimated_diameter_min" : 725.3373275385,
          "estimated_diameter_max" : 1621.9035709942
        }
      },
      "is_potentially_hazardous_asteroid" : false,
      "close_approach_data" : [ {
        "close_approach_date" : "2005-08-15",
        "epoch_date_close_approach" : 1124089200000,
        "relative_velocity" : {
          "kilometers_per_second" : "4.5008279452",
          "kilometers_per_hour" : "16202.9806028238",
          "miles_per_hour" : "10067.9020306824"
        },
        "miss_distance" : {
          "astronomical" : "0.1924466039",
          "lunar" : "74.8617324829",
          "kilometers" : "28789602",
          "miles" : "17889030"
        },
        "orbiting_body" : "Earth"
      } ],
      "orbital_data" : {
        "orbit_id" : "15",
        "orbit_determination_date" : "2017-04-06 09:10:34",
        "orbit_uncertainty" : "6",
        "minimum_orbit_intersection" : ".174375",
        "jupiter_tisserand_invariant" : "3.342",
        "epoch_osculation" : "2458000.5",
        "eccentricity" : ".5105203894129884",
        "semi_major_axis" : "2.385435841840643",
        "inclination" : "4.336399755111473",
        "ascending_node_longitude" : "246.4074205998367",
        "orbital_period" : "1345.705531007379",
        "perihelion_distance" : "1.167622206944458",
        "perihelion_argument" : "77.976682571078",
        "aphelion_distance" : "3.603249476736828",
        "perihelion_time" : "2457649.581118530320",
        "mean_anomaly" : "93.87699940158154",
        "mean_motion" : ".2675176639353694",
        "equinox" : "J2000"
      }
    }, {
      "links" : {
        "self" : "https://api.nasa.gov/neo/rest/v1/neo/2438955?api_key=t0TVs3DtDT2H8Oy2Zy8m2eVrNsAVKAexjcZXUckd"
      },
      "neo_reference_id" : "2438955",
      "name" : "438955 (2010 LN14)",
      "nasa_jpl_url" : "http://ssd.jpl.nasa.gov/sbdb.cgi?sstr=2438955",
      "absolute_magnitude_h" : 21.0,
      "estimated_diameter" : {
        "kilometers" : {
          "estimated_diameter_min" : 0.1677084622,
          "estimated_diameter_max" : 0.3750075218
        },
        "meters" : {
          "estimated_diameter_min" : 167.7084621628,
          "estimated_diameter_max" : 375.0075217981
        },
        "miles" : {
          "estimated_diameter_min" : 0.1042091748,
          "estimated_diameter_max" : 0.2330187988
        },
        "feet" : {
          "estimated_diameter_min" : 550.2246310023,
          "estimated_diameter_max" : 1230.3396778159
        }
      },
      "is_potentially_hazardous_asteroid" : true,
      "close_approach_data" : [ {
        "close_approach_date" : "2005-08-15",
        "epoch_date_close_approach" : 1124089200000,
        "relative_velocity" : {
          "kilometers_per_second" : "11.7598825691",
          "kilometers_per_hour" : "42335.5772487481",
          "miles_per_hour" : "26305.6813188124"
        },
        "miss_distance" : {
          "astronomical" : "0.3195727538",
          "lunar" : "124.3137969971",
          "kilometers" : "47807404",
          "miles" : "29706142"
        },
        "orbiting_body" : "Earth"
      } ],
      "orbital_data" : {
        "orbit_id" : "57",
        "orbit_determination_date" : "2017-07-21 13:58:10",
        "orbit_uncertainty" : "0",
        "minimum_orbit_intersection" : ".0183009",
        "jupiter_tisserand_invariant" : "5.336",
        "epoch_osculation" : "2458000.5",
        "eccentricity" : ".4747737910848359",
        "semi_major_axis" : "1.154388790137419",
        "inclination" : "1.493097945484678",
        "ascending_node_longitude" : "342.7623228868851",
        "orbital_period" : "453.0295992501231",
        "perihelion_distance" : ".6063152478580393",
        "perihelion_argument" : "33.46850689406689",
        "aphelion_distance" : "1.702462332416798",
        "perihelion_time" : "2458162.807055950499",
        "mean_anomaly" : "231.0226876149005",
        "mean_motion" : ".79465006391611",
        "equinox" : "J2000"
      }
    }, {
      "links" : {
        "self" : "https://api.nasa.gov/neo/rest/v1/neo/3309832?api_key=t0TVs3DtDT2H8Oy2Zy8m2eVrNsAVKAexjcZXUckd"
      },
      "neo_reference_id" : "3309832",
      "name" : "(2005 YO128)",
      "nasa_jpl_url" : "http://ssd.jpl.nasa.gov/sbdb.cgi?sstr=3309832",
      "absolute_magnitude_h" : 24.6,
      "estimated_diameter" : {
        "kilometers" : {
          "estimated_diameter_min" : 0.0319561887,
          "estimated_diameter_max" : 0.0714562102
        },
        "meters" : {
          "estimated_diameter_min" : 31.9561886721,
          "estimated_diameter_max" : 71.4562101727
        },
        "miles" : {
          "estimated_diameter_min" : 0.0198566489,
          "estimated_diameter_max" : 0.0444008168
        },
        "feet" : {
          "estimated_diameter_min" : 104.8431420431,
          "estimated_diameter_max" : 234.436392583
        }
      },
      "is_potentially_hazardous_asteroid" : false,
      "close_approach_data" : [ {
        "close_approach_date" : "2005-08-15",
        "epoch_date_close_approach" : 1124089200000,
        "relative_velocity" : {
          "kilometers_per_second" : "12.2604327291",
          "kilometers_per_hour" : "44137.5578249047",
          "miles_per_hour" : "27425.3619718137"
        },
        "miss_distance" : {
          "astronomical" : "0.3574795816",
          "lunar" : "139.0595550537",
          "kilometers" : "53478184",
          "miles" : "33229802"
        },
        "orbiting_body" : "Earth"
      } ],
      "orbital_data" : {
        "orbit_id" : "10",
        "orbit_determination_date" : "2017-04-06 09:09:32",
        "orbit_uncertainty" : "7",
        "minimum_orbit_intersection" : ".0155322",
        "jupiter_tisserand_invariant" : "7.069",
        "epoch_osculation" : "2458000.5",
        "eccentricity" : ".296629837089032",
        "semi_major_axis" : ".8210005095448185",
        "inclination" : "15.59032967559832",
        "ascending_node_longitude" : "281.7446315157346",
        "orbital_period" : "271.7149703413027",
        "perihelion_distance" : ".5774672621485268",
        "perihelion_argument" : "328.4076682203353",
        "aphelion_distance" : "1.06453375694111",
        "perihelion_time" : "2457909.980699012466",
        "mean_anomaly" : "119.930632878195",
        "mean_motion" : "1.324917797307237",
        "equinox" : "J2000"
      }
    } ]
  }
}